<?xml version="1.0" encoding="UTF-8"?>
<kml xmlns="http://www.opengis.net/kml/2.2">
  <Document>
    <name>Mixed Survey Features</name>
    <Placemark id="boundary_poly">
      <name>District Campus</name>
      <Polygon>
        <outerBoundaryIs>
          <LinearRing>
            <coordinates>
              77.590,12.970,0
              77.600,12.970,0
              77.600,12.980,0
              77.590,12.980,0
              77.590,12.970,0
            </coordinates>
          </LinearRing>
        </outerBoundaryIs>
      </Polygon>
    </Placemark>
    <Placemark id="access_road">
      <name>Campus Main Avenue</name>
      <LineString>
        <coordinates>
          77.590,12.975,0
          77.595,12.975,0
          77.600,12.978,0
        </coordinates>
      </LineString>
    </Placemark>
    <Placemark id="entrance_gate">
      <name>North Security Gate</name>
      <Point>
        <coordinates>77.595,12.980,0</coordinates>
      </Point>
    </Placemark>
  </Document>
</kml>